{"type": "FeatureCollection", "features": [ {"type": "Feature", "properties": {"norad_id": 34833, "name": "IRIDIUM 33 DEB", "group": "iridium-33-debris", "lat": 75.58703268108943, "lon": 66.1757463068278, "alt_km": 697.3543922458721, "timestamp": "2025-12-10T11:33:53.769514+00:00", "meta": {"OBJECT_NAME": "IRIDIUM 33 DEB", "OBJECT_ID": "1997-051MH", "EPOCH": "2025-12-09T05:43:51.843072", "MEAN_MOTION": 14.52344467, "ECCENTRICITY": 0.0021797, "INCLINATION": 86.3929, "RA_OF_ASC_NODE": 52.5028, "ARG_OF_PERICENTER": 109.2817, "MEAN_ANOMALY": 311.6946, "EPHEMERIS_TYPE": 0, "CLASSIFICATION_TYPE": "U", "NORAD_CAT_ID": 34833, "ELEMENT_SET_NO": 999, "REV_AT_EPOCH": 87664, "BSTAR": 0.0011811, "MEAN_MOTION_DOT": 4.84e-05, "MEAN_MOTION_DDOT": 0}, "tle": {"line1": "1 34833U 97051MH  25343.23879448  .00004840  00000+0  11811-2 0  9994", "line2": "2 34833  86.3929  52.5028 0021797 109.2817 311.6946 14.52344467876647"}}, "geometry": {"type": "Point", "coordinates": [66.1757463068278, 75.58703268108943]}}, {"type": "Feature", "properties": {"norad_id": 34870, "name": "IRIDIUM 33 DEB", "group": "iridium-33-debris", "lat": -33.311979955055115, "lon": 137.54764049147457, "alt_km": 636.9058129655295, "timestamp": "2025-12-10T11:33:53.769524+00:00", "meta": {"OBJECT_NAME": "IRIDIUM 33 DEB", "OBJECT_ID": "1997-051MQ", "EPOCH": "2025-12-09T21:43:57.656352", "MEAN_MOTION": 14.76336241, "ECCENTRICITY": 0.0015739, "INCLINATION": 86.3106, "RA_OF_ASC_NODE": 315.3812, "ARG_OF_PERICENTER": 193.0049, "MEAN_ANOMALY": 199.043, "EPHEMERIS_TYPE": 0, "CLASSIFICATION_TYPE": "U", "NORAD_CAT_ID": 34870, "ELEMENT_SET_NO": 999, "REV_AT_EPOCH": 88869, "BSTAR": 0.0021576, "MEAN_MOTION_DOT": 0.00015039, "MEAN_MOTION_DDOT": 0}, "tle": {"line1": "1 34870U 97051MQ  25343.90552843  .00015039  00000+0  21576-2 0  9997", "line2": "2 34870  86.3106 315.3812 0015739 193.0049 199.0430 14.76336241888694"}}, "geometry": {"type": "Point", "coordinates": [137.54764049147457, -33.311979955055115]}}, {"type": "Feature", "properties": {"norad_id": 34896, "name": "IRIDIUM 33 DEB", "group": "iridium-33-debris", "lat": 43.48465598376697, "lon": 144.20715051008062, "alt_km": 668.5988102176834, "timestamp": "2025-12-10T11:33:53.769535+00:00", "meta": {"OBJECT_NAME": "IRIDIUM 33 DEB", "OBJECT_ID": "1997-051MY", "EPOCH": "2025-12-09T05:43:17.078304", "MEAN_MOTION": 14.66220489, "ECCENTRICITY": 0.0024034, "INCLINATION": 86.3293, "RA_OF_ASC_NODE": 328.2553, "ARG_OF_PERICENTER": 227.4371, "MEAN_ANOMALY": 189.808, "EPHEMERIS_TYPE": 0, "CLASSIFICATION_TYPE": "U", "NORAD_CAT_ID": 34896, "ELEMENT_SET_NO": 999, "REV_AT_EPOCH": 87568, "BSTAR": 0.0013765, "MEAN_MOTION_DOT": 7.633e-05, "MEAN_MOTION_DDOT": 0}, "tle": {"line1": "1 34896U 97051MY  25343.23839211  .00007633  00000+0  13765-2 0  9990", "line2": "2 34896  86.3293 328.2553 0024034 227.4371 189.8080 14.66220489875680"}}, "geometry": {"type": "Point", "coordinates": [144.20715051008062, 43.48465598376697]}}, {"type": "Feature", "properties": {"norad_id": 34926, "name": "IRIDIUM 33 DEB", "group": "iridium-33-debris", "lat": -39.813355095752264, "lon": 6.086796673888718, "alt_km": 667.6968120770034, "timestamp": "2025-12-10T11:33:53.769545+00:00", "meta": {"OBJECT_NAME": "IRIDIUM 33 DEB", "OBJECT_ID": "1997-051NF", "EPOCH": "2025-12-09T03:00:38.009952", "MEAN_MOTION": 14.54144924, "ECCENTRICITY": 0.00760026, "INCLINATION": 86.1319, "RA_OF_ASC_NODE": 9.9484, "ARG_OF_PERICENTER": 305.1684, "MEAN_ANOMALY": 118.2748, "EPHEMERIS_TYPE": 0, "CLASSIFICATION_TYPE": "U", "NORAD_CAT_ID": 34926, "ELEMENT_SET_NO": 999, "REV_AT_EPOCH": 86404, "BSTAR": 0.0063092717, "MEAN_MOTION_DOT": 0.00027819, "MEAN_MOTION_DDOT": 0}, "tle": {"line1": "1 34926U 97051NF  25343.12543993  .00027819  00000+0  63093-2 0  9998", "line2": "2 34926  86.1319   9.9484 0076002 305.1684 118.2748 14.54144924864041"}}, "geometry": {"type": "Point", "coordinates": [6.086796673888718, -39.813355095752264]}}, {"type": "Feature", "properties": {"norad_id": 34985, "name": "IRIDIUM 33 DEB", "group": "iridium-33-debris", "lat": -4.99365816439639, "lon": -121.83942951687035, "alt_km": 744.8629183980647, "timestamp": "2025-12-10T11:33:53.769555+00:00", "meta": {"OBJECT_NAME": "IRIDIUM 33 DEB", "OBJECT_ID": "1997-051NR", "EPOCH": "2025-12-10T04:10:55.898112", "MEAN_MOTION": 14.41991528, "ECCENTRICITY": 0.0020483, "INCLINATION": 86.3695, "RA_OF_ASC_NODE": 57.9739, "ARG_OF_PERICENTER": 228.6146, "MEAN_ANOMALY": 160.5649, "EPHEMERIS_TYPE": 0, "CLASSIFICATION_TYPE": "U", "NORAD_CAT_ID": 34985, "ELEMENT_SET_NO": 999, "REV_AT_EPOCH": 87138, "BSTAR": 0.0009713, "MEAN_MOTION_DOT": 3.211e-05, "MEAN_MOTION_DDOT": 0}, "tle": {"line1": "1 34985U 97051NR  25344.17425808  .00003211  00000+0  97130-3 0  9993", "line2": "2 34985  86.3695  57.9739 0020483 228.6146 160.5649 14.41991528871386"}}, "geometry": {"type": "Point", "coordinates": [-121.83942951687035, -4.99365816439639]}}, {"type": "Feature", "properties": {"norad_id": 35051, "name": "IRIDIUM 33 DEB", "group": "iridium-33-debris", "lat": 71.98258554548521, "lon": 21.244902573922744, "alt_km": 719.8245184749549, "timestamp": "2025-12-10T11:33:53.769565+00:00", "meta": {"OBJECT_NAME": "IRIDIUM 33 DEB", "OBJECT_ID": "1997-051NX", "EPOCH": "2025-12-10T01:16:41.683008", "MEAN_MOTION": 14.47578215, "ECCENTRICITY": 0.0010663, "INCLINATION": 86.3242, "RA_OF_ASC_NODE": 10.0324, "ARG_OF_PERICENTER": 98.47, "MEAN_ANOMALY": 261.7712, "EPHEMERIS_TYPE": 0, "CLASSIFICATION_TYPE": "U", "NORAD_CAT_ID": 35051, "ELEMENT_SET_NO": 999, "REV_AT_EPOCH": 86957, "BSTAR": 0.00086361, "MEAN_MOTION_DOT": 3.199e-05, "MEAN_MOTION_DDOT": 0}, "tle": {"line1": "1 35051U 97051NX  25344.05326022  .00003199  00000+0  86361-3 0  9992", "line2": "2 35051  86.3242  10.0324 0010663  98.4700 261.7712 14.47578215869570"}}, "geometry": {"type": "Point", "coordinates": [21.244902573922744, 71.98258554548521]}}, {"type": "Feature", "properties": {"norad_id": 35052, "name": "IRIDIUM 33 DEB", "group": "iridium-33-debris", "lat": -64.42065338538558, "lon": 13.741301374898129, "alt_km": 779.7198771478234, "timestamp": "2025-12-10T11:33:53.769575+00:00", "meta": {"OBJECT_NAME": "IRIDIUM 33 DEB", "OBJECT_ID": "1997-051NY", "EPOCH": "2025-12-10T01:50:55.279680", "MEAN_MOTION": 14.38487392, "ECCENTRICITY": 0.0013697, "INCLINATION": 86.3312, "RA_OF_ASC_NODE": 21.6179, "ARG_OF_PERICENTER": 92.475, "MEAN_ANOMALY": 267.8016, "EPHEMERIS_TYPE": 0, "CLASSIFICATION_TYPE": "U", "NORAD_CAT_ID": 35052, "ELEMENT_SET_NO": 999, "REV_AT_EPOCH": 87237, "BSTAR": 0.00026979, "MEAN_MOTION_DOT": 8.44e-06, "MEAN_MOTION_DDOT": 0}, "tle": {"line1": "1 35052U 97051NY  25344.07702870  .00000844  00000+0  26979-3 0  9997", "line2": "2 35052  86.3312  21.6179 0013697  92.4750 267.8016 14.38487392872375"}}, "geometry": {"type": "Point", "coordinates": [13.741301374898129, -64.42065338538558]}}, {"type": "Feature", "properties": {"norad_id": 35080, "name": "IRIDIUM 33 DEB", "group": "iridium-33-debris", "lat": 83.9420284777488, "lon": 92.15326078466694, "alt_km": 613.1178329210934, "timestamp": "2025-12-10T11:33:53.769585+00:00", "meta": {"OBJECT_NAME": "IRIDIUM 33 DEB", "OBJECT_ID": "1997-051PF", "EPOCH": "2025-12-09T10:55:41.938464", "MEAN_MOTION": 14.85397119, "ECCENTRICITY": 0.00616418, "INCLINATION": 86.2064, "RA_OF_ASC_NODE": 53.9454, "ARG_OF_PERICENTER": 191.0106, "MEAN_ANOMALY": 168.9774, "EPHEMERIS_TYPE": 0, "CLASSIFICATION_TYPE": "U", "NORAD_CAT_ID": 35080, "ELEMENT_SET_NO": 999, "REV_AT_EPOCH": 69639, "BSTAR": 0.010046072, "MEAN_MOTION_DOT": 0.00090518, "MEAN_MOTION_DDOT": 0}, "tle": {"line1": "1 35080U 97051PF  25343.45534651  .00090518  00000+0  10046-1 0  9992", "line2": "2 35080  86.2064  53.9454 0061641 191.0106 168.9774 14.85397119696393"}}, "geometry": {"type": "Point", "coordinates": [92.15326078466694, 83.9420284777488]}}, {"type": "Feature", "properties": {"norad_id": 35297, "name": "IRIDIUM 33 DEB", "group": "iridium-33-debris", "lat": 31.453623465217994, "lon": -118.4909654506953, "alt_km": 727.7438251325948, "timestamp": "2025-12-10T11:33:53.769595+00:00", "meta": {"OBJECT_NAME": "IRIDIUM 33 DEB", "OBJECT_ID": "1997-051PM", "EPOCH": "2025-12-06T00:31:29.302752", "MEAN_MOTION": 14.45108459, "ECCENTRICITY": 0.00170329, "INCLINATION": 86.3867, "RA_OF_ASC_NODE": 65.6268, "ARG_OF_PERICENTER": 161.2449, "MEAN_ANOMALY": 198.9384, "EPHEMERIS_TYPE": 0, "CLASSIFICATION_TYPE": "U", "NORAD_CAT_ID": 35297, "ELEMENT_SET_NO": 999, "REV_AT_EPOCH": 70329, "BSTAR": 0.0012426888, "MEAN_MOTION_DOT": 4.371e-05, "MEAN_MOTION_DDOT": 0}, "tle": {"line1": "1 35297U 97051PM  25340.02186693  .00004371  00000+0  12427-2 0  9999", "line2": "2 35297  86.3867  65.6268 0017032 161.2449 198.9384 14.45108459703293"}}, "geometry": {"type": "Point", "coordinates": [-118.4909654506953, 31.453623465217994]}}, {"type": "Feature", "properties": {"norad_id": 35299, "name": "IRIDIUM 33 DEB", "group": "iridium-33-debris", "lat": 63.59813586083854, "lon": -153.34433451017898, "alt_km": 707.8742356432358, "timestamp": "2025-12-10T11:33:53.769605+00:00", "meta": {"OBJECT_NAME": "IRIDIUM 33 DEB", "OBJECT_ID": "1997-051PP", "EPOCH": "2025-12-09T03:37:25.282848", "MEAN_MOTION": 14.40832112, "ECCENTRICITY": 0.00588898, "INCLINATION": 86.2882, "RA_OF_ASC_NODE": 34.7485, "ARG_OF_PERICENTER": 113.8076, "MEAN_ANOMALY": 303.2931, "EPHEMERIS_TYPE": 0, "CLASSIFICATION_TYPE": "U", "NORAD_CAT_ID": 35299, "ELEMENT_SET_NO": 999, "REV_AT_EPOCH": 86279, "BSTAR": 0.00094086001, "MEAN_MOTION_DOT": 3.095e-05, "MEAN_MOTION_DDOT": 0}, "tle": {"line1": "1 35299U 97051PP  25343.15098707  .00003095  00000+0  94086-3 0  9990", "line2": "2 35299  86.2882  34.7485 0058889 113.8076 303.2931 14.40832112862798"}}, "geometry": {"type": "Point", "coordinates": [-153.34433451017898, 63.59813586083854]}}]}